NORAD_CAT_ID,OBJECT_NAME,OBJECT_TYPE,EPOCH,MEAN_MOTION,ECCENTRICITY,INCLINATION,RA_OF_ASC_NODE,ARG_OF_PERICENTER,MEAN_ANOMALY,BSTAR,MEAN_MOTION_DOT,MEAN_MOTION_DDOT,TLE_LINE0,TLE_LINE1,TLE_LINE2,SEMIMAJOR_AXIS,PERIOD,APOGEE,PERIGEE,DECAYED
56813.0,STARLINK-6056,PAYLOAD,2024-05-09 14:45:33,14.98336021,0.0003022,70.0003,231.2534,266.9761,93.1052,0.00011949,1.333e-05,0.0,0 STARLINK-6056,1 56813U 23078AY  24130.61497239  .00001333  00000-0  11949-3 0  9991,2 56813  70.0003 231.2534 0003022 266.9761  93.1052 14.98336021 52463,6950.174,96.107,574.14,569.939,0.0
56813.0,STARLINK-6056,PAYLOAD,2024-05-09 16:21:41,14.98334354,0.0003049,70.0005,231.085,266.4799,93.6011,0.00016586,1.887e-05,0.0,0 STARLINK-6056,1 56813U 23078AY  24130.68173208  .00001887  00000-0  16586-3 0  9991,2 56813  70.0005 231.0850 0003049 266.4799  93.6011 14.98334354 52477,6950.179,96.107,574.164,569.925,0.0
56813.0,STARLINK-6056,PAYLOAD,2024-05-10 13:11:27,14.98327772,0.0003172,70.0005,228.899,272.5543,87.5253,5.6525e-05,5.81e-06,0.0,0 STARLINK-6056,1 56813U 23078AY  24131.54962007  .00000581  00000-0  56525-4 0  9998,2 56813  70.0005 228.8990 0003172 272.5543  87.5253 14.98327772 52867,6950.2,96.107,574.269,569.86,0.0
56813.0,STARLINK-6056,PAYLOAD,2024-05-10 14:47:35,14.98330803,0.0003101,70.0002,228.73,270.3888,89.6916,2.7766e-05,2.38e-06,0.0,0 STARLINK-6056,1 56813U 23078AY  24131.61637893  .00000238  00000-0  27766-4 0  9992,2 56813  70.0002 228.7300 0003101 270.3888  89.6916 14.98330803 52619,6950.19,96.107,574.211,569.9,0.0
56813.0,STARLINK-6056,PAYLOAD,2024-05-10 16:23:43,14.98330246,0.0002921,70.0004,228.5617,266.5344,93.5481,7.0011e-05,7.42e-06,0.0,0 STARLINK-6056,1 56813U 23078AY  24131.68313820  .00000742  00000-0  70011-4 0  9991,2 56813  70.0004 228.5617 0002921 266.5344  93.5481 14.98330246 52626,6950.192,96.107,574.087,570.027,0.0
56813.0,STARLINK-6056,PAYLOAD,2024-05-11 13:13:22,14.98395824,0.0003192,69.9996,226.3733,269.6951,90.3842,0.00057166,6.746e-05,0.0,0 STARLINK-6056,1 56813U 23078AY  24132.55095479  .00006746  00000-0  57166-3 0  9990,2 56813  69.9996 226.3733 0003192 269.6951  90.3842 14.98395824 53010,6949.989,96.103,574.073,569.636,0.0
56813.0,STARLINK-6056,PAYLOAD,2024-05-11 16:25:42,14.98331545,0.0002727,70.0007,226.0368,263.9196,96.1652,-0.00014083,-1.773e-05,0.0,0 STARLINK-6056,1 56813U 23078AY  24132.68452505 -.00001773  00000-0 -14083-3 0  9999,2 56813  70.0007 226.0368 0002727 263.9196  96.1652 14.98331545 53033,6950.188,96.107,573.948,570.158,0.0
56813.0,STARLINK-6056,PAYLOAD,2024-05-12 05:14:51,14.98283433,0.0002417,69.9994,224.6896,279.9601,80.1285,-0.00051786,-6.259e-05,0.0,0 STARLINK-6056,1 56813U 23078AY  24133.21865609 -.00006259  00000-0 -51786-3 0  9997,2 56813  69.9994 224.6896 0002417 279.9601  80.1285 14.98283433 53115,6950.337,96.11,573.882,570.522,0.0
56813.0,STARLINK-6056,PAYLOAD,2024-05-12 11:39:26,14.98265043,0.0002709,70.0005,224.0173,275.4885,84.5965,-0.00066608,-8.018e-05,0.0,0 STARLINK-6056,1 56813U 23078AY  24133.48571940 -.00008018  00000-0 -66608-3 0  9992,2 56813  70.0005 224.0173 0002709 275.4885  84.5965 14.98265043 53156,6950.394,96.111,574.142,570.376,0.0
56813.0,STARLINK-6056,PAYLOAD,2024-05-12 13:15:34,14.98264775,0.0002543,70.0008,223.8492,271.6311,88.4556,-0.00065826,-7.925e-05,0.0,0 STARLINK-6056,1 56813U 23078AY  24133.55248170 -.00007925  00000-0 -65826-3 0  9993,2 56813  70.0008 223.8492 0002543 271.6311  88.4556 14.98264775 52900,6950.395,96.111,574.027,570.492,0.0
56813.0,STARLINK-6056,PAYLOAD,2024-05-12 16:27:48,14.9830216,0.0002602,70.0007,223.5117,317.8907,42.2051,-0.00015562,-1.948e-05,0.0,0 STARLINK-6056,1 56813U 23078AY  24133.68597682 -.00001948  00000-0 -15562-3 0  9993,2 56813  70.0007 223.5117 0002602 317.8907  42.2051 14.98302160 53180,6950.279,96.109,573.952,570.336,0.0
56813.0,STARLINK-6056,PAYLOAD,2024-05-13 05:16:51,14.98341067,0.0003108,70.0009,222.164,274.448,85.6324,-0.00048468,-5.873e-05,0.0,0 STARLINK-6056,1 56813U 23078AY  24134.22004168 -.00005873  00000-0 -48468-3 0  9998,2 56813  70.0009 222.1640 0003108 274.4480  85.6324 14.98341067 53266,6950.159,96.106,574.184,569.864,0.0
56813.0,STARLINK-6056,PAYLOAD,2024-05-13 11:41:22,14.98351897,0.000255,70.0011,221.4921,273.0974,86.9893,-0.00032332,-3.951e-05,0.0,0 STARLINK-6056,1 56813U 23078AY  24134.48706993 -.00003951  00000-0 -32332-3 0  9999,2 56813  70.0011 221.4921 0002550 273.0974  86.9893 14.98351897 53308,6950.125,96.106,573.762,570.218,0.0
56813.0,STARLINK-6056,PAYLOAD,2024-05-13 16:29:46,14.98349507,0.0002543,70.0012,220.9871,273.5852,86.5016,-0.00027499,-3.374e-05,0.0,0 STARLINK-6056,1 56813U 23078AY  24134.68734882 -.00003374  00000-0 -27499-3 0  9996,2 56813  70.0012 220.9871 0002543 273.5852  86.5016 14.98349507 53071,6950.133,96.106,573.765,570.23,0.0
56813.0,STARLINK-6056,PAYLOAD,2024-05-14 11:43:23,14.98313052,0.0002541,70.0005,218.9672,276.0743,84.0126,0.00082077,9.709e-05,0.0,0 STARLINK-6056,1 56813U 23078AY  24135.48846869  .00009709  00000-0  82077-3 0  9993,2 56813  70.0005 218.9672 0002541 276.0743  84.0126 14.98313052 53457,6950.245,96.108,573.876,570.344,0.0
56813.0,STARLINK-6056,PAYLOAD,2024-05-15 05:20:52,14.98346286,0.0002531,70.0004,217.115,275.6024,84.4846,9.5103e-05,1.042e-05,0.0,0 STARLINK-6056,1 56813U 23078AY  24136.22282701  .00001042  00000-0  95103-4 0  9992,2 56813  70.0004 217.1150 0002531 275.6024  84.4846 14.98346286 53564,6950.143,96.106,573.767,570.248,0.0
56813.0,STARLINK-6056,PAYLOAD,2024-05-15 13:21:32,14.9834979,0.0002438,70.0008,216.2733,271.5554,88.5326,0.00010792,1.196e-05,0.0,0 STARLINK-6056,1 56813U 23078AY  24136.55662038  .00001196  00000-0  10792-3 0  9993,2 56813  70.0008 216.2733 0002438 271.5554  88.5326 14.98349790 53352,6950.132,96.106,573.691,570.302,0.0
56813.0,STARLINK-6056,PAYLOAD,2024-05-15 14:57:39,14.98363459,0.0002494,70.0008,216.1057,274.2535,85.8339,-7.1992e-05,-9.53e-06,0.0,0 STARLINK-6056,1 56813U 23078AY  24136.62337412 -.00000953  00000-0 -71992-4 0  9998,2 56813  70.0008 216.1057 0002494 274.2535  85.8339 14.98363459 53623,6950.089,96.105,573.688,570.221,0.0
56813.0,STARLINK-6056,PAYLOAD,2024-05-15 22:58:20,14.98342012,0.0002131,70.002,215.2641,273.9703,86.1212,3.3946e-05,3.12e-06,0.0,0 STARLINK-6056,1 56813U 23078AY  24136.95718289  .00000312  00000-0  33946-4 0  9993,2 56813  70.0020 215.2641 0002131 273.9703  86.1212 14.98342012 53678,6950.156,96.106,573.502,570.54,0.0
56813.0,STARLINK-6056,PAYLOAD,2024-05-16 11:47:24,14.98342218,0.0002559,70.0011,213.9165,269.3319,90.7547,0.00012431,1.391e-05,0.0,0 STARLINK-6056,1 56813U 23078AY  24137.49125113  .00001391  00000-0  12431-3 0  9994,2 56813  70.0011 213.9165 0002559 269.3319  90.7547 14.98342218 53490,6950.155,96.106,573.799,570.242,0.0
56813.0,STARLINK-6056,PAYLOAD,2024-05-16 23:00:20,14.98347123,0.0002671,70.0007,212.7385,271.7323,88.353,-4.6151e-05,-6.44e-06,0.0,0 STARLINK-6056,1 56813U 23078AY  24137.95856682 -.00000644  00000-0 -46151-4 0  9996,2 56813  70.0007 212.7385 0002671 271.7323  88.3530 14.98347123 53825,6950.14,96.106,573.861,570.149,0.0
56813.0,STARLINK-6056,PAYLOAD,2024-05-17 11:49:24,14.98341474,0.0002703,70.0004,211.3928,267.9219,92.1631,-8.3788e-05,-1.093e-05,0.0,0 STARLINK-6056,1 56813U 23078AY  24138.49264677 -.00001093  00000-0 -83788-4 0  9999,2 56813  70.0004 211.3928 0002703 267.9219  92.1631 14.98341474 53904,6950.157,96.106,573.901,570.144,0.0
56813.0,STARLINK-6056,PAYLOAD,2024-05-18 03:50:45,14.9833076,0.000293,70.0005,209.7096,269.1569,90.9254,-2.2495e-05,-3.61e-06,0.0,0 STARLINK-6056,1 56813U 23078AY  24139.16024809 -.00000361  00000-0 -22495-4 0  9990,2 56813  70.0005 209.7096 0002930 269.1569  90.9254 14.98330760 54001,6950.191,96.107,574.092,570.019,0.0
56813.0,STARLINK-6056,PAYLOAD,2024-05-18 13:27:33,14.98339415,0.0002962,70.0002,208.6998,268.4465,91.6355,-9.9359e-06,-2.12e-06,0.0,0 STARLINK-6056,1 56813U 23078AY  24139.56080121 -.00000212  00000-0 -99359-5 0  9992,2 56813  70.0002 208.6998 0002962 268.4465  91.6355 14.98339415 53802,6950.164,96.106,574.087,569.97,0.0
56813.0,STARLINK-6056,PAYLOAD,2024-05-18 15:03:41,14.98340535,0.000295,70.0002,208.5314,268.4739,91.6082,3.3888e-06,-5.3e-07,0.0,0 STARLINK-6056,1 56813U 23078AY  24139.62755980 -.00000053  00000-0  33888-5 0  9998,2 56813  70.0002 208.5314 0002950 268.4739  91.6082 14.98340535 54076,6950.16,96.106,574.076,569.975,0.0
56813.0,STARLINK-6056,PAYLOAD,2024-05-18 21:28:13,14.98349518,0.0003015,69.9998,207.8543,278.6366,81.4452,-0.00037967,-4.622e-05,0.0,0 STARLINK-6056,1 56813U 23078AY  24139.89460078 -.00004622  00000-0 -37967-3 0  9995,2 56813  69.9998 207.8543 0003015 278.6366  81.4452 14.98349518 53858,6950.133,96.106,574.093,569.902,0.0
56813.0,STARLINK-6056,PAYLOAD,2024-05-19 03:52:47,14.98323109,0.0002206,70.0001,207.1849,267.8115,92.2791,-6.5151e-05,-8.7e-06,0.0,0 STARLINK-6056,1 56813U 23078AY  24140.16165510 -.00000870  00000-0 -65151-4 0  9998,2 56813  70.0001 207.1849 0002206 267.8115  92.2791 14.98323109 54159,6950.214,96.107,573.612,570.546,0.0
56813.0,STARLINK-6056,PAYLOAD,2024-05-19 13:29:36,14.98311335,0.0002681,70.0011,206.1776,257.7941,102.2917,-0.00019489,-2.416e-05,0.0,0 STARLINK-6056,1 56813U 23078AY  24140.56222843 -.00002416  00000-0 -19489-3 0  9995,2 56813  70.0011 206.1776 0002681 257.7941 102.2917 14.98311335 53957,6950.251,96.108,573.979,570.252,0.0
56813.0,STARLINK-6056,PAYLOAD,2024-05-20 11:55:28,14.9833214,0.0002736,70.0006,203.8185,262.8738,97.211,6.9282e-05,7.34e-06,0.0,0 STARLINK-6056,1 56813U 23078AY  24141.49685198  .00000734  00000-0  69282-4 0  9990,2 56813  70.0006 203.8185 0002736 262.8738  97.2110 14.98332140 54351,6950.186,96.107,573.953,570.15,0.0
56813.0,STARLINK-6056,PAYLOAD,2024-05-20 13:31:35,14.98336245,0.0002786,70.0007,203.6517,262.3945,97.6898,0.00012118,1.353e-05,0.0,0 STARLINK-6056,1 56813U 23078AY  24141.56360781  .00001353  00000-0  12118-3 0  9999,2 56813  70.0007 203.6517 0002786 262.3945  97.6898 14.98336245 54109,6950.174,96.107,573.975,570.102,0.0
